{"type": "FeatureCollection", "features": [ {"type": "Feature", "properties": {"norad_id": 66504, "name": "STARLINK-35916", "group": "last-30-days", "lat": 32.113619250681026, "lon": -107.01317595206493, "alt_km": 438.56734267240336, "timestamp": "2025-12-14T16:47:39.436077+00:00", "meta": {"OBJECT_NAME": "STARLINK-35916", "OBJECT_ID": "2025-263V", "EPOCH": "2025-12-13T16:54:06.833664", "MEAN_MOTION": 15.40762632, "ECCENTRICITY": 2.061e-05, "INCLINATION": 42.9948, "RA_OF_ASC_NODE": 121.0759, "ARG_OF_PERICENTER": 329.9033, "MEAN_ANOMALY": 30.1812, "EPHEMERIS_TYPE": 0, "CLASSIFICATION_TYPE": "U", "NORAD_CAT_ID": 66504, "ELEMENT_SET_NO": 999, "REV_AT_EPOCH": 569, "BSTAR": 0.0011896968, "MEAN_MOTION_DOT": 0.00049822, "MEAN_MOTION_DDOT": 0}, "tle": {"line1": "1 66504U 25263V   25347.70424576  .00049822  00000+0  11897-2 0  9997", "line2": "2 66504  42.9948 121.0759 0000206 329.9033  30.1812 15.40762632  5692"}}, "geometry": {"type": "Point", "coordinates": [-107.01317595206493, 32.113619250681026]}}, {"type": "Feature", "properties": {"norad_id": 66505, "name": "STARLINK-34766", "group": "last-30-days", "lat": 39.693593248823845, "lon": -129.36077505141932, "alt_km": 408.3611865337234, "timestamp": "2025-12-14T16:47:39.436087+00:00", "meta": {"OBJECT_NAME": "STARLINK-34766", "OBJECT_ID": "2025-263W", "EPOCH": "2025-12-12T17:56:57.882624", "MEAN_MOTION": 15.50613801, "ECCENTRICITY": 0.00016181, "INCLINATION": 42.9974, "RA_OF_ASC_NODE": 125.0394, "ARG_OF_PERICENTER": 278.9286, "MEAN_ANOMALY": 81.1391, "EPHEMERIS_TYPE": 0, "CLASSIFICATION_TYPE": "U", "NORAD_CAT_ID": 66505, "ELEMENT_SET_NO": 999, "REV_AT_EPOCH": 556, "BSTAR": 0.0019225717, "MEAN_MOTION_DOT": 0.00114249, "MEAN_MOTION_DDOT": 0}, "tle": {"line1": "1 66505U 25263W   25346.74789216  .00114249  00000+0  19226-2 0  9996", "line2": "2 66505  42.9974 125.0394 0001618 278.9286  81.1391 15.50613801  5560"}}, "geometry": {"type": "Point", "coordinates": [-129.36077505141932, 39.693593248823845]}}, {"type": "Feature", "properties": {"norad_id": 66506, "name": "STARLINK-34765", "group": "last-30-days", "lat": 39.289299717513806, "lon": -127.77786794244362, "alt_km": 408.84416396713914, "timestamp": "2025-12-14T16:47:39.436099+00:00", "meta": {"OBJECT_NAME": "STARLINK-34765", "OBJECT_ID": "2025-263X", "EPOCH": "2025-12-13T09:24:02.209536", "MEAN_MOTION": 15.50662448, "ECCENTRICITY": 0.00019802, "INCLINATION": 43.0016, "RA_OF_ASC_NODE": 121.276, "ARG_OF_PERICENTER": 266.2517, "MEAN_ANOMALY": 93.8117, "EPHEMERIS_TYPE": 0, "CLASSIFICATION_TYPE": "U", "NORAD_CAT_ID": 66506, "ELEMENT_SET_NO": 999, "REV_AT_EPOCH": 566, "BSTAR": 0.0020838032, "MEAN_MOTION_DOT": 0.00124234, "MEAN_MOTION_DDOT": 0}, "tle": {"line1": "1 66506U 25263X   25347.39169224  .00124234  00000+0  20838-2 0  9996", "line2": "2 66506  43.0016 121.2760 0001980 266.2517  93.8117 15.50662448  5662"}}, "geometry": {"type": "Point", "coordinates": [-127.77786794244362, 39.289299717513806]}}, {"type": "Feature", "properties": {"norad_id": 66507, "name": "STARLINK-34767", "group": "last-30-days", "lat": 13.360576592865849, "lon": 128.60720248218976, "alt_km": 441.77270198197857, "timestamp": "2025-12-14T16:47:39.436124+00:00", "meta": {"OBJECT_NAME": "STARLINK-34767", "OBJECT_ID": "2025-263Y", "EPOCH": "2025-12-13T22:00:00.999936", "MEAN_MOTION": 15.40665926, "ECCENTRICITY": 0.00016588, "INCLINATION": 42.9999, "RA_OF_ASC_NODE": 118.3547, "ARG_OF_PERICENTER": 283.5355, "MEAN_ANOMALY": 67.7537, "EPHEMERIS_TYPE": 0, "CLASSIFICATION_TYPE": "U", "NORAD_CAT_ID": 66507, "ELEMENT_SET_NO": 999, "REV_AT_EPOCH": 582, "BSTAR": 0.0013943753, "MEAN_MOTION_DOT": 0.00058324, "MEAN_MOTION_DDOT": 0}, "tle": {"line1": "1 66507U 25263Y   25347.91667824  .00058324  00000+0  13944-2 0  9990", "line2": "2 66507  42.9999 118.3547 0001658 283.5355  67.7537 15.40665926  5822"}}, "geometry": {"type": "Point", "coordinates": [128.60720248218976, 13.360576592865849]}}, {"type": "Feature", "properties": {"norad_id": 66508, "name": "STARLINK-35608", "group": "last-30-days", "lat": 39.45394507721199, "lon": 175.75113310869432, "alt_km": 442.85512350333283, "timestamp": "2025-12-14T16:47:39.436136+00:00", "meta": {"OBJECT_NAME": "STARLINK-35608", "OBJECT_ID": "2025-263Z", "EPOCH": "2025-12-13T22:00:00.999936", "MEAN_MOTION": 15.42861124, "ECCENTRICITY": 0.00012127, "INCLINATION": 43.0002, "RA_OF_ASC_NODE": 118.2399, "ARG_OF_PERICENTER": 284.4703, "MEAN_ANOMALY": 114.8476, "EPHEMERIS_TYPE": 0, "CLASSIFICATION_TYPE": "U", "NORAD_CAT_ID": 66508, "ELEMENT_SET_NO": 999, "REV_AT_EPOCH": 582, "BSTAR": -0.054508116, "MEAN_MOTION_DOT": -0.02198416, "MEAN_MOTION_DDOT": 0}, "tle": {"line1": "1 66508U 25263Z   25347.91667824 -.02198416  00000+0 -54508-1 0  9992", "line2": "2 66508  43.0002 118.2399 0001212 284.4703 114.8476 15.42861124  5823"}}, "geometry": {"type": "Point", "coordinates": [175.75113310869432, 39.45394507721199]}}, {"type": "Feature", "properties": {"norad_id": 66509, "name": "STARLINK-35598", "group": "last-30-days", "lat": 32.19763945167199, "lon": -108.93599026449726, "alt_km": 410.8621288811919, "timestamp": "2025-12-14T16:47:39.436147+00:00", "meta": {"OBJECT_NAME": "STARLINK-35598", "OBJECT_ID": "2025-263AA", "EPOCH": "2025-12-13T17:03:22.446144", "MEAN_MOTION": 15.50682418, "ECCENTRICITY": 0.00033899, "INCLINATION": 43.0011, "RA_OF_ASC_NODE": 119.3612, "ARG_OF_PERICENTER": 267.2282, "MEAN_ANOMALY": 92.819, "EPHEMERIS_TYPE": 0, "CLASSIFICATION_TYPE": "U", "NORAD_CAT_ID": 66509, "ELEMENT_SET_NO": 999, "REV_AT_EPOCH": 571, "BSTAR": 0.0017943251, "MEAN_MOTION_DOT": 0.00106776, "MEAN_MOTION_DDOT": 0}, "tle": {"line1": "1 66509U 25263AA  25347.71067646  .00106776  00000+0  17943-2 0  9994", "line2": "2 66509  43.0011 119.3612 0003389 267.2282  92.8190 15.50682418  5714"}}, "geometry": {"type": "Point", "coordinates": [-108.93599026449726, 32.19763945167199]}}, {"type": "Feature", "properties": {"norad_id": 66510, "name": "STARLINK-35600", "group": "last-30-days", "lat": 34.92924817007519, "lon": -114.9522198745534, "alt_km": 410.0616512178267, "timestamp": "2025-12-14T16:47:39.436157+00:00", "meta": {"OBJECT_NAME": "STARLINK-35600", "OBJECT_ID": "2025-263AB", "EPOCH": "2025-12-13T17:04:51.354336", "MEAN_MOTION": 15.50691917, "ECCENTRICITY": 0.00026786, "INCLINATION": 43.0009, "RA_OF_ASC_NODE": 119.3706, "ARG_OF_PERICENTER": 264.2732, "MEAN_ANOMALY": 95.7823, "EPHEMERIS_TYPE": 0, "CLASSIFICATION_TYPE": "U", "NORAD_CAT_ID": 66510, "ELEMENT_SET_NO": 999, "REV_AT_EPOCH": 571, "BSTAR": 0.0017561372, "MEAN_MOTION_DOT": 0.00104495, "MEAN_MOTION_DDOT": 0}, "tle": {"line1": "1 66510U 25263AB  25347.71170549  .00104495  00000+0  17561-2 0  9995", "line2": "2 66510  43.0009 119.3706 0002678 264.2732  95.7823 15.50691917  5713"}}, "geometry": {"type": "Point", "coordinates": [-114.9522198745534, 34.92924817007519]}}, {"type": "Feature", "properties": {"norad_id": 66511, "name": "STARLINK-35444", "group": "last-30-days", "lat": 33.420336747128694, "lon": -111.50440031140415, "alt_km": 409.93573200258834, "timestamp": "2025-12-14T16:47:39.436168+00:00", "meta": {"OBJECT_NAME": "STARLINK-35444", "OBJECT_ID": "2025-263AC", "EPOCH": "2025-12-13T18:36:38.488608", "MEAN_MOTION": 15.50553327, "ECCENTRICITY": 9.555e-05, "INCLINATION": 42.9995, "RA_OF_ASC_NODE": 118.9895, "ARG_OF_PERICENTER": 296.0653, "MEAN_ANOMALY": 64.0108, "EPHEMERIS_TYPE": 0, "CLASSIFICATION_TYPE": "U", "NORAD_CAT_ID": 66511, "ELEMENT_SET_NO": 999, "REV_AT_EPOCH": 572, "BSTAR": 0.0015108389, "MEAN_MOTION_DOT": 0.00089226, "MEAN_MOTION_DDOT": 0}, "tle": {"line1": "1 66511U 25263AC  25347.77544547  .00089226  00000+0  15108-2 0  9994", "line2": "2 66511  42.9995 118.9895 0000955 296.0653  64.0108 15.50553327  5729"}}, "geometry": {"type": "Point", "coordinates": [-111.50440031140415, 33.420336747128694]}}, {"type": "Feature", "properties": {"norad_id": 66512, "name": "STARLINK-35366", "group": "last-30-days", "lat": 31.343680786180098, "lon": -107.24498913056061, "alt_km": 410.63259017275686, "timestamp": "2025-12-14T16:47:39.436178+00:00", "meta": {"OBJECT_NAME": "STARLINK-35366", "OBJECT_ID": "2025-263AD", "EPOCH": "2025-12-13T17:02:53.035584", "MEAN_MOTION": 15.50610733, "ECCENTRICITY": 0.00025895, "INCLINATION": 43.0009, "RA_OF_ASC_NODE": 119.3568, "ARG_OF_PERICENTER": 263.1209, "MEAN_ANOMALY": 96.9357, "EPHEMERIS_TYPE": 0, "CLASSIFICATION_TYPE": "U", "NORAD_CAT_ID": 66512, "ELEMENT_SET_NO": 999, "REV_AT_EPOCH": 571, "BSTAR": 0.0018726046, "MEAN_MOTION_DOT": 0.0011122, "MEAN_MOTION_DDOT": 0}, "tle": {"line1": "1 66512U 25263AD  25347.71033606  .00111220  00000+0  18726-2 0  9997", "line2": "2 66512  43.0009 119.3568 0002589 263.1209  96.9357 15.50610733  5711"}}, "geometry": {"type": "Point", "coordinates": [-107.24498913056061, 31.343680786180098]}}, {"type": "Feature", "properties": {"norad_id": 66513, "name": "STARLINK-35692", "group": "last-30-days", "lat": 34.22439606301847, "lon": -113.28711001526126, "alt_km": 411.07958769575725, "timestamp": "2025-12-14T16:47:39.436191+00:00", "meta": {"OBJECT_NAME": "STARLINK-35692", "OBJECT_ID": "2025-263AE", "EPOCH": "2025-12-13T18:37:07.420512", "MEAN_MOTION": 15.50613635, "ECCENTRICITY": 0.00033711, "INCLINATION": 43.0049, "RA_OF_ASC_NODE": 118.9928, "ARG_OF_PERICENTER": 277.9214, "MEAN_ANOMALY": 82.1264, "EPHEMERIS_TYPE": 0, "CLASSIFICATION_TYPE": "U", "NORAD_CAT_ID": 66513, "ELEMENT_SET_NO": 999, "REV_AT_EPOCH": 572, "BSTAR": 0.0016517493, "MEAN_MOTION_DOT": 0.00097912, "MEAN_MOTION_DDOT": 0}, "tle": {"line1": "1 66513U 25263AE  25347.77578033  .00097912  00000+0  16517-2 0  9999", "line2": "2 66513  43.0049 118.9928 0003371 277.9214  82.1264 15.50613635  5729"}}, "geometry": {"type": "Point", "coordinates": [-113.28711001526126, 34.22439606301847]}}]}